TISAT 1                 
1 36799U 10035E   26068.75703561  .00024554  00000+0  91005-3 0  9996
2 36799  98.0645   6.8512 0001343 159.3030 200.8262 15.27628633852505
STARLINK-31092          
1 58628U 23203L   26068.37045179 -.00000528  00000+0 -96672-5 0  9998
2 58628  42.9979  68.7960 0000529 234.8552 125.2250 15.27572454123513
